OBJECT_NAME,OBJECT_ID,EPOCH,MEAN_MOTION,ECCENTRICITY,INCLINATION,RA_OF_ASC_NODE,ARG_OF_PERICENTER,MEAN_ANOMALY,EPHEMERIS_TYPE,CLASSIFICATION_TYPE,NORAD_CAT_ID,ELEMENT_SET_NO,REV_AT_EPOCH,BSTAR,MEAN_MOTION_DOT,MEAN_MOTION_DDOT
ONEWEB-0667,2023-029AH,2026-06-18T13:01:36.431328,13.20772175,.00018232,87.9200,274.1602,98.6772,261.4568,0,U,55827,999,16132,.32038236E-3,.143E-5,0
ONEWEB-0669,2023-029AJ,2026-06-18T12:54:19.643904,13.20772557,.00022216,87.9192,274.1724,86.1697,273.9691,0,U,55828,999,16132,.30682904E-3,.138E-5,0
ONEWEB-0670,2023-029AK,2026-06-18T13:58:40.507392,13.14503420,.00016531,87.8957,289.4624,90.3469,269.7850,0,U,55829,999,15961,-.17009138E-3,-.5E-6,0
ONEWEB-0671,2023-029AL,2026-06-17T21:32:22.591680,13.19724244,.00016886,87.9171,304.8341,97.7543,262.3782,0,U,55830,999,15899,-.4657523E-5,.11E-6,0
ONEWEB-0672,2023-029AM,2026-06-18T12:47:02.675904,13.20773051,.00022538,87.9195,274.1665,98.4547,261.6842,0,U,55831,999,16132,.16290577E-3,.79E-6,0
ONEWEB-0673,2023-029AN,2026-06-18T15:11:09.015072,13.19727585,.000174,87.9179,304.6793,96.9252,263.2079,0,U,55832,999,15909,.26246585E-3,.118E-5,0
ONEWEB-0674,2023-029AP,2026-06-18T15:02:36.228480,13.14504421,.00016745,87.8954,289.4305,88.8178,271.3144,0,U,55833,999,15960,.44518744E-3,.178E-5,0
ONEWEB-0675,2023-029AQ,2026-06-18T15:32:46.926240,13.19724750,.00021442,87.9173,304.6861,103.9359,256.2012,0,U,55834,999,15911,.41527811E-4,.3E-6,0
ONEWEB-0720,2023-029AR,2026-06-18T15:21:24.040512,13.19724945,.0001641,87.9171,304.6877,105.6575,254.4739,0,U,55835,999,15903,.25054881E-3,.113E-5,0
ONEWEB-0537,2023-043A,2026-06-18T09:51:11.587392,13.16595045,.00022885,87.9099,228.5287,98.2045,261.9345,0,U,56046,999,15912,.79884202E-4,.43E-6,0
ONEWEB-0538,2023-043B,2026-06-18T09:42:04.309056,13.16595995,.00021645,87.9099,228.5322,104.3175,255.8196,0,U,56047,999,15913,.24035714E-3,.105E-5,0
ONEWEB-0546,2023-043C,2026-06-18T03:55:31.706688,13.16595142,.00027291,87.9099,228.5800,94.9689,265.1753,0,U,56048,999,15909,.29464119E-3,.125E-5,0
ONEWEB-0547,2023-043D,2026-06-18T11:01:20.931456,13.21825904,.00019863,87.9259,243.7209,104.4142,255.7213,0,U,56049,999,15839,.10479135E-3,.56E-6,0
ONEWEB-0548,2023-043E,2026-06-18T09:59:08.844576,13.16594235,.00019855,87.9095,228.5262,84.8061,275.3297,0,U,56050,999,15912,-.66556136E-3,-.242E-5,0
ONEWEB-0549,2023-043F,2026-06-18T14:30:52.962624,13.21825837,.00021453,87.9251,243.6985,109.4930,250.6436,0,U,56051,999,15841,.3833129E-4,.29E-6,0
ONEWEB-0550,2023-043G,2026-06-18T14:11:31.125408,13.21825544,.00018864,87.9254,243.6988,93.8121,266.3229,0,U,56052,999,15841,-.35134365E-4,-.1E-7,0
ONEWEB-0551,2023-043H,2026-06-18T12:34:56.016480,13.15550074,.000198,87.9003,258.9600,110.9014,249.2329,0,U,56053,999,15657,.17594086E-3,.79E-6,0
ONEWEB-0552,2023-043J,2026-06-18T14:04:12.146880,13.21829121,.00018295,87.9255,243.7053,101.0823,259.0517,0,U,56054,999,15841,.26968553E-3,.124E-5,0
ONEWEB-0553,2023-043K,2026-06-18T09:32:57.027264,13.16595103,.000242,87.9096,228.5339,92.6878,267.4530,0,U,56055,999,15913,.1004063E-3,.51E-6,0
ONEWEB-0554,2023-043L,2026-06-18T11:04:09.800256,13.16595448,.00019278,87.9096,228.5303,82.1667,277.9683,0,U,56056,999,15912,.23199131E-3,.102E-5,0
ONEWEB-0555,2023-043M,2026-06-18T10:09:23.742144,13.16596544,.00026569,87.9100,228.5263,93.4708,266.6727,0,U,56057,999,15912,-.84730114E-4,-.2E-6,0
ONEWEB-0557,2023-043N,2026-06-18T14:08:48.956064,13.16594100,.00026881,87.9096,228.5032,70.2776,289.8645,0,U,56058,999,15914,-.13683183E-3,-.39E-6,0
ONEWEB-0558,2023-043P,2026-06-18T06:38:30.392160,13.21827814,.00021906,87.9254,243.7617,107.1065,253.0309,0,U,56059,999,15838,.30768228E-4,.26E-6,0
ONEWEB-0559,2023-043Q,2026-06-18T11:48:33.567552,13.21825825,.00019291,87.9257,243.7138,105.1048,255.0300,0,U,56060,999,15842,.28231299E-4,.25E-6,0
ONEWEB-0566,2023-043R,2026-06-18T11:38:53.570400,13.21827212,.00019442,87.9255,243.7133,108.4129,251.7217,0,U,56061,999,15840,.31999211E-3,.145E-5,0
ONEWEB-0568,2023-043S,2026-06-18T14:33:54.296352,13.16594124,.00023386,87.9094,228.4893,94.7515,265.3883,0,U,56062,999,15916,.22175113E-3,.98E-6,0
ONEWEB-0574,2023-043T,2026-06-18T06:02:11.522400,13.21824446,.00020384,87.9266,243.7628,92.3160,267.8207,0,U,56063,999,15841,-.40965142E-4,-.4E-7,0
ONEWEB-0575,2023-043U,2026-06-18T14:24:47.265984,13.16593908,.00022364,87.9095,228.4871,86.7525,273.3862,0,U,56064,999,15915,.14181516E-3,.67E-6,0
ONEWEB-0576,2023-043V,2026-06-18T10:18:32.802048,13.16593979,.00021512,87.9099,228.5288,91.3083,268.8294,0,U,56065,999,15912,-.39740862E-4,-.2E-7,0
ONEWEB-0577,2023-043W,2026-06-18T14:06:32.873472,13.16593570,.00021548,87.9098,228.4951,76.1951,283.9419,0,U,56066,999,15917,-.36132288E-4,-.1E-7,0
