[
  {
    "name": "ONEWEB-0667",
    "noradId": "55827",
    "line1": "1 55827U 23029AH  26169.54278277  .00000143  00000+0  32038-3 0  9995",
    "line2": "2 55827  87.9200 274.1602 0001823  98.6772 261.4568 13.20772175161320"
  },
  {
    "name": "ONEWEB-0669",
    "noradId": "55828",
    "line1": "1 55828U 23029AJ  26169.53772736  .00000138  00000+0  30683-3 0  9992",
    "line2": "2 55828  87.9192 274.1724 0002221  86.1697 273.9691 13.20772557161326"
  },
  {
    "name": "ONEWEB-0670",
    "noradId": "55829",
    "line1": "1 55829U 23029AK  26169.58241328 -.00000050  00000+0 -17009-3 0  9998",
    "line2": "2 55829  87.8957 289.4624 0001653  90.3469 269.7850 13.14503420159618"
  },
  {
    "name": "ONEWEB-0671",
    "noradId": "55830",
    "line1": "1 55830U 23029AL  26168.89748370  .00000011  00000+0 -46575-5 0  9990",
    "line2": "2 55830  87.9171 304.8341 0001688  97.7543 262.3782 13.19724244158996"
  },
  {
    "name": "ONEWEB-0672",
    "noradId": "55831",
    "line1": "1 55831U 23029AM  26169.53266986  .00000079  00000+0  16291-3 0  9994",
    "line2": "2 55831  87.9195 274.1665 0002253  98.4547 261.6842 13.20773051161324"
  },
  {
    "name": "ONEWEB-0673",
    "noradId": "55832",
    "line1": "1 55832U 23029AN  26169.63274323  .00000118  00000+0  26247-3 0  9996",
    "line2": "2 55832  87.9179 304.6793 0001740  96.9252 263.2079 13.19727585159094"
  },
  {
    "name": "ONEWEB-0674",
    "noradId": "55833",
    "line1": "1 55833U 23029AP  26169.62680820  .00000178  00000+0  44519-3 0  9997",
    "line2": "2 55833  87.8954 289.4305 0001674  88.8178 271.3144 13.14504421159604"
  },
  {
    "name": "ONEWEB-0675",
    "noradId": "55834",
    "line1": "1 55834U 23029AQ  26169.64776535  .00000030  00000+0  41528-4 0  9994",
    "line2": "2 55834  87.9173 304.6861 0002144 103.9359 256.2012 13.19724750159115"
  },
  {
    "name": "ONEWEB-0720",
    "noradId": "55835",
    "line1": "1 55835U 23029AR  26169.63986158  .00000113  00000+0  25055-3 0  9996",
    "line2": "2 55835  87.9171 304.6877 0001641 105.6575 254.4739 13.19724945159034"
  },
  {
    "name": "ONEWEB-0537",
    "noradId": "56046",
    "line1": "1 56046U 23043A   26169.41055078  .00000043  00000+0  79884-4 0  9993",
    "line2": "2 56046  87.9099 228.5287 0002288  98.2045 261.9345 13.16595045159124"
  },
  {
    "name": "ONEWEB-0538",
    "noradId": "56047",
    "line1": "1 56047U 23043B   26169.40421654  .00000105  00000+0  24036-3 0  9997",
    "line2": "2 56047  87.9099 228.5322 0002164 104.3175 255.8196 13.16595995159132"
  },
  {
    "name": "ONEWEB-0546",
    "noradId": "56048",
    "line1": "1 56048U 23043C   26169.16356142  .00000125  00000+0  29464-3 0  9992",
    "line2": "2 56048  87.9099 228.5800 0002729  94.9689 265.1753 13.16595142159097"
  },
  {
    "name": "ONEWEB-0547",
    "noradId": "56049",
    "line1": "1 56049U 23043D   26169.45927004  .00000056  00000+0  10479-3 0  9995",
    "line2": "2 56049  87.9259 243.7209 0001986 104.4142 255.7213 13.21825904158399"
  },
  {
    "name": "ONEWEB-0548",
    "noradId": "56050",
    "line1": "1 56050U 23043E   26169.41607459 -.00000242  00000+0 -66556-3 0  9998",
    "line2": "2 56050  87.9095 228.5262 0001985  84.8061 275.3297 13.16594235159125"
  },
  {
    "name": "ONEWEB-0549",
    "noradId": "56051",
    "line1": "1 56051U 23043F   26169.60477966  .00000029  00000+0  38331-4 0  9990",
    "line2": "2 56051  87.9251 243.6985 0002145 109.4930 250.6436 13.21825837158411"
  },
  {
    "name": "ONEWEB-0550",
    "noradId": "56052",
    "line1": "1 56052U 23043G   26169.59133247 -.00000001  00000+0 -35134-4 0  9990",
    "line2": "2 56052  87.9254 243.6988 0001886  93.8121 266.3229 13.21825544158416"
  },
  {
    "name": "ONEWEB-0551",
    "noradId": "56053",
    "line1": "1 56053U 23043H   26169.52425945  .00000079  00000+0  17594-3 0  9995",
    "line2": "2 56053  87.9003 258.9600 0001980 110.9014 249.2329 13.15550074156578"
  },
  {
    "name": "ONEWEB-0552",
    "noradId": "56054",
    "line1": "1 56054U 23043J   26169.58625170  .00000124  00000+0  26969-3 0  9991",
    "line2": "2 56054  87.9255 243.7053 0001829 101.0823 259.0517 13.21829121158415"
  },
  {
    "name": "ONEWEB-0553",
    "noradId": "56055",
    "line1": "1 56055U 23043K   26169.39788226  .00000051  00000+0  10041-3 0  9996",
    "line2": "2 56055  87.9096 228.5339 0002420  92.6878 267.4530 13.16595103159132"
  },
  {
    "name": "ONEWEB-0554",
    "noradId": "56056",
    "line1": "1 56056U 23043L   26169.46122454  .00000102  00000+0  23199-3 0  9995",
    "line2": "2 56056  87.9096 228.5303 0001927  82.1667 277.9683 13.16595448159121"
  },
  {
    "name": "ONEWEB-0555",
    "noradId": "56057",
    "line1": "1 56057U 23043M   26169.42319146 -.00000020  00000+0 -84730-4 0  9998",
    "line2": "2 56057  87.9100 228.5263 0002656  93.4708 266.6727 13.16596544159126"
  },
  {
    "name": "ONEWEB-0557",
    "noradId": "56058",
    "line1": "1 56058U 23043N   26169.58945551 -.00000039  00000+0 -13683-3 0  9999",
    "line2": "2 56058  87.9096 228.5032 0002688  70.2776 289.8645 13.16594100159142"
  },
  {
    "name": "ONEWEB-0558",
    "noradId": "56059",
    "line1": "1 56059U 23043P   26169.27674065  .00000026  00000+0  30768-4 0  9993",
    "line2": "2 56059  87.9254 243.7617 0002190 107.1065 253.0309 13.21827814158388"
  },
  {
    "name": "ONEWEB-0559",
    "noradId": "56060",
    "line1": "1 56060U 23043Q   26169.49205518  .00000025  00000+0  28231-4 0  9993",
    "line2": "2 56060  87.9257 243.7138 0001929 105.1048 255.0300 13.21825825158427"
  },
  {
    "name": "ONEWEB-0566",
    "noradId": "56061",
    "line1": "1 56061U 23043R   26169.48534225  .00000145  00000+0  31999-3 0  9990",
    "line2": "2 56061  87.9255 243.7133 0001944 108.4129 251.7217 13.21827212158404"
  },
  {
    "name": "ONEWEB-0568",
    "noradId": "56062",
    "line1": "1 56062U 23043S   26169.60687843  .00000098  00000+0  22175-3 0  9993",
    "line2": "2 56062  87.9094 228.4893 0002338  94.7515 265.3883 13.16594124159164"
  },
  {
    "name": "ONEWEB-0574",
    "noradId": "56063",
    "line1": "1 56063U 23043T   26169.25152225 -.00000004  00000+0 -40965-4 0  9993",
    "line2": "2 56063  87.9266 243.7628 0002038  92.3160 267.8207 13.21824446158412"
  },
  {
    "name": "ONEWEB-0575",
    "noradId": "56064",
    "line1": "1 56064U 23043U   26169.60054706  .00000067  00000+0  14182-3 0  9996",
    "line2": "2 56064  87.9095 228.4871 0002236  86.7525 273.3862 13.16593908159156"
  },
  {
    "name": "ONEWEB-0576",
    "noradId": "56065",
    "line1": "1 56065U 23043V   26169.42954632 -.00000002  00000+0 -39741-4 0  9994",
    "line2": "2 56065  87.9099 228.5288 0002151  91.3083 268.8294 13.16593979159124"
  },
  {
    "name": "ONEWEB-0577",
    "noradId": "56066",
    "line1": "1 56066U 23043W   26169.58788048 -.00000001  00000+0 -36132-4 0  9998",
    "line2": "2 56066  87.9098 228.4951 0002154  76.1951 283.9419 13.16593570159177"
  }
]